NORAD_CAT_ID,OBJECT_NAME,OBJECT_TYPE,EPOCH,MEAN_MOTION,ECCENTRICITY,INCLINATION,RA_OF_ASC_NODE,ARG_OF_PERICENTER,MEAN_ANOMALY,BSTAR,MEAN_MOTION_DOT,MEAN_MOTION_DDOT,TLE_LINE0,TLE_LINE1,TLE_LINE2,SEMIMAJOR_AXIS,PERIOD,APOGEE,PERIGEE,DECAYED
49166.0,STARLINK-3089,PAYLOAD,2022-01-16 22:00:00,15.69718758,0.0003458,69.9989,136.0289,291.7987,242.1902,-0.00014247,-0.00017164,0.0,0 STARLINK-3089,1 49166U 21082AN  22016.91667824 -.00017164  00000-0 -14247-3 0  9995,2 49166  69.9989 136.0289 0003458 291.7987 242.1902 15.69718758  3695,6737.839,91.736,362.034,357.374,0.0
49166.0,STARLINK-3089,PAYLOAD,2022-01-17 06:00:00,15.69715747,0.0003326,69.9992,135.0921,286.0837,330.9827,0.00015052,0.00017769,0.0,0 STARLINK-3089,1 49166U 21082AN  22017.25001157  .00017769  00000-0  15052-3 0  9998,2 49166  69.9992 135.0921 0003326 286.0837 330.9827 15.69715747 20940,6737.847,91.736,361.953,357.471,0.0
49166.0,STARLINK-3089,PAYLOAD,2022-01-17 14:00:01,15.69694829,0.0003326,69.9997,134.1552,291.9887,48.178,2.1681e-06,4.6e-07,0.0,0 STARLINK-3089,1 49166U 21082AN  22017.58334491  .00000046  00000-0  21681-5 0  9991,2 49166  69.9997 134.1552 0003326 291.9887  48.1780 15.69694829  3703,6737.906999999997,91.738,362.013,357.531,0.0
49166.0,STARLINK-3089,PAYLOAD,2022-01-17 22:00:00,15.69724329,0.0003359,69.9993,133.2183,293.2442,129.9769,-0.00019909,-0.00023887,0.0,0 STARLINK-3089,1 49166U 21082AN  22017.91667824 -.00023887  00000-0 -19909-3 0  9995,2 49166  69.9993 133.2183 0003359 293.2442 129.9769 15.69724329 21048,6737.823,91.736,361.951,357.425,0.0
49166.0,STARLINK-3089,PAYLOAD,2022-01-18 14:00:01,15.69736375,0.0003407,69.9994,131.3447,293.5092,295.9114,0.00033432,0.00039866,0.0,0 STARLINK-3089,1 49166U 21082AN  22018.58334491  .00039866  00000-0  33432-3 0  9999,2 49166  69.9994 131.3447 0003407 293.5092 295.9114 15.69736375 21153,6737.788000000001,91.735,361.949,357.358,0.0
49166.0,STARLINK-3089,PAYLOAD,2022-01-18 22:00:00,15.69792942,0.000342,69.9992,130.4075,294.2417,18.3031,-0.00017553,-0.00021152,0.0,0 STARLINK-3089,1 49166U 21082AN  22018.91667824 -.00021152  00000-0 -17553-3 0  9992,2 49166  69.9992 130.4075 0003420 294.2417  18.3031 15.69792942  3687,6737.626,91.732,361.796,357.18699999999984,0.0
49166.0,STARLINK-3089,PAYLOAD,2022-01-19 14:00:01,15.69762139,0.0003765,69.9998,128.5337,292.1514,186.7562,0.00020284,0.00024086,0.0,0 STARLINK-3089,1 49166U 21082AN  22019.58334491  .00024086  00000-0  20284-3 0  9999,2 49166  69.9998 128.5337 0003765 292.1514 186.7562 15.69762139 21302,6737.715,91.734,362.116,357.043,0.0
49166.0,STARLINK-3089,PAYLOAD,2022-01-19 22:00:00,15.69807815,0.0003835,69.9993,127.5965,292.2058,269.8628,-0.00080432,-0.00095388,0.0,0 STARLINK-3089,1 49166U 21082AN  22019.91667824 -.00095388  00000-0 -80432-3 0  9991,2 49166  69.9993 127.5965 0003835 292.2058 269.8628 15.69807815  3683,6737.584,91.731,362.033,356.865,0.0
49166.0,STARLINK-3089,PAYLOAD,2022-01-20 06:00:00,15.69759053,0.0003737,69.9997,126.662,286.1512,359.0463,-0.00025535,-0.00030599,0.0,0 STARLINK-3089,1 49166U 21082AN  22020.25001157 -.00030599  00000-0 -25535-3 0  9997,2 49166  69.9997 126.6620 0003737 286.1512 359.0463 15.69759053 21413,6737.723000000001,91.734,362.106,357.07,0.0
49166.0,STARLINK-3089,PAYLOAD,2022-01-20 14:00:01,15.69787885,0.0003801,70.0,125.7291,289.98,78.3497,-0.0041302,-0.00467606,0.0,0 STARLINK-3089,1 49166U 21082AN  22020.58334491 -.00467606  00000-0 -41302-2 0  9995,2 49166  70.0000 125.7291 0003801 289.9800  78.3497 15.69787885 21465,6737.641,91.732,362.067,356.945,0.0
49166.0,STARLINK-3089,PAYLOAD,2022-01-20 22:00:00,15.69693585,0.0003679,69.9995,124.7959,287.9064,163.3267,-0.0052494,-0.00583877,0.0,0 STARLINK-3089,1 49166U 21082AN  22020.91667824 -.00583877  00000-0 -52494-2 0  9994,2 49166  69.9995 124.7959 0003679 287.9064 163.3267 15.69693585 21517,6737.911,91.738,362.255,357.297,0.0
49166.0,STARLINK-3089,PAYLOAD,2022-01-21 08:00:01,15.69150523,0.0004367,70.0,123.6258,290.7723,353.9027,-0.0059652,-0.00644288,0.0,0 STARLINK-3089,1 49166U 21082AN  22021.33334491 -.00644288  00000-0 -59652-2 0  9999,2 49166  70.0000 123.6258 0004367 290.7723 353.9027 15.69150523 21584,6739.465,91.769,364.273,358.38699999999994,0.0
49166.0,STARLINK-3089,PAYLOAD,2022-01-21 14:00:01,15.68710752,0.0003611,70.0003,122.9239,278.5276,337.8512,-0.0048933,-0.0052616999999999,0.0,0 STARLINK-3089,1 49166U 21082AN  22021.58334491 -.00526170  00000-0 -48933-2 0  9995,2 49166  70.0003 122.9239 0003611 278.5276 337.8512 15.68710752  3659,6740.725,91.795,365.024,360.156,0.0
49166.0,STARLINK-3089,PAYLOAD,2022-01-21 22:00:00,15.68343595,0.0003546999999999,69.9999,121.9904,277.3442,60.6987,-0.0063568,-0.00662443,0.0,0 STARLINK-3089,1 49166U 21082AN  22021.91667824 -.00662443  00000-0 -63568-2 0  9996,2 49166  69.9999 121.9904 0003547 277.3442  60.6987 15.68343595 21674,6741.776999999999,91.817,366.033,361.25,0.0
49166.0,STARLINK-3089,PAYLOAD,2022-01-22 14:00:01,15.67407516,0.0003721,70.0,120.1227,290.3992,209.3959,-0.0065815,-0.00660308,0.0,0 STARLINK-3089,1 49166U 21082AN  22022.58334491 -.00660308  00000-0 -65815-2 0  9996,2 49166  70.0000 120.1227 0003721 290.3992 209.3959 15.67407516  3683,6744.4609999999975,91.871,368.835,363.816,0.0
49166.0,STARLINK-3089,PAYLOAD,2022-01-22 22:00:00,15.66941906,0.0003396,69.9998,119.1895,278.4219,301.4078,-0.0067464,-0.0066379,0.0,0 STARLINK-3089,1 49166U 21082AN  22022.91667824 -.00663790  00000-0 -67464-2 0  9992,2 49166  69.9998 119.1895 0003396 278.4219 301.4078 15.66941906  3672,6745.797,91.899,369.953,365.371,0.0
49166.0,STARLINK-3089,PAYLOAD,2022-01-23 06:00:00,15.66473204,0.0003704,70.0001,118.2573,286.7391,12.565,-0.00684,-0.00660676,0.0,0 STARLINK-3089,1 49166U 21082AN  22023.25001157 -.00660676  00000-0 -68400-2 0  9992,2 49166  70.0001 118.2573 0003704 286.7391  12.5650 15.66473204 21889,6747.142,91.926,371.506,366.508,0.0
49166.0,STARLINK-3089,PAYLOAD,2022-01-23 14:00:01,15.66006772,0.0004005,70.0001,117.3256,288.0409,90.1767,-0.0069925,-0.00662737,0.0,0 STARLINK-3089,1 49166U 21082AN  22023.58334491 -.00662737  00000-0 -69925-2 0  9991,2 49166  70.0001 117.3256 0004005 288.0409  90.1767 15.66006772  3688,6748.482,91.954,373.05,367.644,0.0
49166.0,STARLINK-3089,PAYLOAD,2022-01-23 22:00:00,15.65538242,0.0003493,69.9998,116.3945,270.505,186.0664,-0.0071093,-0.0066122,0.0,0 STARLINK-3089,1 49166U 21082AN  22023.91667824 -.00661220  00000-0 -71093-2 0  9992,2 49166  69.9998 116.3945 0003493 270.5050 186.0664 15.65538242  3684,6749.828,91.981,374.051,369.336,0.0
49166.0,STARLINK-3089,PAYLOAD,2022-01-24 06:00:02,15.65070258,0.0003435,70.0003,115.4642,279.2083,255.2206,-0.0072218999999999,-0.00659363,0.0,0 STARLINK-3089,1 49166U 21082AN  22024.25002315 -.00659363  00000-0 -72219-2 0  9994,2 49166  70.0003 115.4642 0003435 279.2083 255.2206 15.65070258 22035,6751.174,92.009,375.358,370.72,0.0
49166.0,STARLINK-3089,PAYLOAD,2022-01-24 14:00:01,15.64601507,0.0003433,70.0001,114.5345,280.6878,330.9086,-0.0073473999999999,-0.00658474,0.0,0 STARLINK-3089,1 49166U 21082AN  22024.58334491 -.00658474  00000-0 -73474-2 0  9999,2 49166  70.0001 114.5345 0003433 280.6878 330.9086 15.64601507  3749,6752.522,92.036,376.705,372.069,0.0
49166.0,STARLINK-3089,PAYLOAD,2022-01-24 22:00:00,15.64136273,0.0003484,69.9998,113.6053,270.4773,57.7897,-0.0075357,-0.00662666,0.0,0 STARLINK-3089,1 49166U 21082AN  22024.91667824 -.00662666  00000-0 -75357-2 0  9995,2 49166  69.9998 113.6053 0003484 270.4773  57.7897 15.64136273  3684,6753.861,92.064,378.079,373.37300000000016,0.0
49166.0,STARLINK-3089,PAYLOAD,2022-01-25 08:00:01,15.63550276,0.0003503,70.0003,112.4448,281.9611,231.3569,-0.007665,-0.00658907,0.0,0 STARLINK-3089,1 49166U 21082AN  22025.33334491 -.00658907  00000-0 -76650-2 0  9993,2 49166  70.0003 112.4448 0003503 281.9611 231.3569 15.63550276 22206,6755.5480000000025,92.098,379.78,375.047,0.0
49166.0,STARLINK-3089,PAYLOAD,2022-01-25 14:00:01,15.63200619,0.0003523,70.0001,111.7491,281.329,198.5984,-0.0077906,-0.00660429,0.0,0 STARLINK-3089,1 49166U 21082AN  22025.58334491 -.00660429  00000-0 -77906-2 0  9997,2 49166  70.0001 111.7491 0003523 281.3290 198.5984 15.63200619  3671,6756.556,92.119,380.801,376.04,0.0
49166.0,STARLINK-3089,PAYLOAD,2022-01-25 22:00:00,15.62734349,0.0003326,69.9999,110.8218,270.6385,284.2781,-0.0079696,-0.00663088,0.0,0 STARLINK-3089,1 49166U 21082AN  22025.91667824 -.00663088  00000-0 -79696-2 0  9995,2 49166  69.9999 110.8218 0003326 270.6385 284.2781 15.62734349  3701,6757.9,92.146,382.012,377.517,0.0
49166.0,STARLINK-3089,PAYLOAD,2022-01-26 14:00:01,15.61798352,0.0003546,70.0,108.9697,278.7477,64.4658,-0.0082385,-0.00661096,0.0,0 STARLINK-3089,1 49166U 21082AN  22026.58334491 -.00661096  00000-0 -82385-2 0  9996,2 49166  70.0000 108.9697 0003546 278.7477  64.4658 15.61798352 22403,6760.599,92.201,384.862,380.067,0.0
49166.0,STARLINK-3089,PAYLOAD,2022-01-26 22:00:00,15.61330322,0.000354,69.9998,108.0444,271.6803,144.841,-0.0083807,-0.00660456,0.0,0 STARLINK-3089,1 49166U 21082AN  22026.91667824 -.00660456  00000-0 -83807-2 0  9991,2 49166  69.9998 108.0444 0003540 271.6803 144.8410 15.61330322  3683,6761.95,92.229,386.209,381.422,0.0
49166.0,STARLINK-3089,PAYLOAD,2022-01-27 13:08:20,15.61106526,0.0003814,69.9996,106.2879,274.9642,85.1114,-0.0040288,-0.00327821,0.0,0 STARLINK-3089,1 49166U 21082AN  22027.54746422 -.00327821  00000-0 -40288-2 0  9995,2 49166  69.9996 106.2879 0003814 274.9642  85.1114 15.61106526 22556,6762.597,92.242,387.041,381.882,0.0
49166.0,STARLINK-3089,PAYLOAD,2022-01-27 20:49:56,15.60695307,0.0004289,69.9995,105.3991,281.9866,78.0844,-0.0039186,-0.00314412,0.0,0 STARLINK-3089,1 49166U 21082AN  22027.86801933 -.00314412  00000-0 -39186-2 0  9996,2 49166  69.9995 105.3991 0004289 281.9866  78.0844 15.60695307 22609,6763.784000000002,92.267,388.55,382.74800000000016,0.0
